[{"OBJECT_NAME":"STARLINK-5140","OBJECT_ID":"2023-046BH","EPOCH":"2026-03-09T02:26:40.218432","MEAN_MOTION":15.0253426,"ECCENTRICITY":0.00011711,"INCLINATION":43.0008,"RA_OF_ASC_NODE":110.9228,"ARG_OF_PERICENTER":272.7156,"MEAN_ANOMALY":87.3553,"EPHEMERIS_TYPE":0,"CLASSIFICATION_TYPE":"U","NORAD_CAT_ID":56147,"ELEMENT_SET_NO":999,"REV_AT_EPOCH":16256,"BSTAR":3.9003224e-5,"MEAN_MOTION_DOT":3.23e-6,"MEAN_MOTION_DDOT":0},{"OBJECT_NAME":"FENGYUN 1C DEB","OBJECT_ID":"1999-025XU","EPOCH":"2026-03-09T14:41:45.749184","MEAN_MOTION":14.51911005,"ECCENTRICITY":0.0242057,"INCLINATION":98.7565,"RA_OF_ASC_NODE":289.113,"ARG_OF_PERICENTER":5.0676,"MEAN_ANOMALY":56.028,"EPHEMERIS_TYPE":0,"CLASSIFICATION_TYPE":"U","NORAD_CAT_ID":30259,"ELEMENT_SET_NO":999,"REV_AT_EPOCH":734,"BSTAR":0.00035048,"MEAN_MOTION_DOT":2.01e-5,"MEAN_MOTION_DDOT":0}]
